STARLINK-31399          
1 59416U 24064U   26068.98976688 -.00002455  00000+0 -79740-4 0  9992
2 59416  43.0024  54.3007 0002389 299.8339  60.2275 15.27558367109274
FLOCK 4G-34             
1 62650U 25009AT  26068.73202491  .00013063  00000+0  49338-3 0  9997
2 62650  97.4004 151.0149 0000674 348.8280  11.2944 15.27131464 63729
